<?xml version="1.0" encoding="UTF-8"?>
<ndm xmlns:xsi="http://www.w3.org/2001/XMLSchema-instance" xsi:noNamespaceSchemaLocation="https://sanaregistry.org/r/ndmxml_unqualified/ndmxml-2.0.0-master-2.0.xsd">
<omm id="CCSDS_OMM_VERS" version="2.0">
<header><CREATION_DATE/><ORIGINATOR/></header><body><segment><metadata><OBJECT_NAME>ONEWEB-0422</OBJECT_NAME><OBJECT_ID>2022-012E</OBJECT_ID><CENTER_NAME>EARTH</CENTER_NAME><REF_FRAME>TEME</REF_FRAME><TIME_SYSTEM>UTC</TIME_SYSTEM><MEAN_ELEMENT_THEORY>SGP4</MEAN_ELEMENT_THEORY></metadata><data><meanElements><EPOCH>2024-03-20T06:08:13.173792</EPOCH><MEAN_MOTION>13.17648248</MEAN_MOTION><ECCENTRICITY>.000149</ECCENTRICITY><INCLINATION>87.9255</INCLINATION><RA_OF_ASC_NODE>168.7744</RA_OF_ASC_NODE><ARG_OF_PERICENTER>84.6976</ARG_OF_PERICENTER><MEAN_ANOMALY>275.4326</MEAN_ANOMALY></meanElements><tleParameters><EPHEMERIS_TYPE>0</EPHEMERIS_TYPE><CLASSIFICATION_TYPE>U</CLASSIFICATION_TYPE><NORAD_CAT_ID>51626</NORAD_CAT_ID><ELEMENT_SET_NO>999</ELEMENT_SET_NO><REV_AT_EPOCH>10724</REV_AT_EPOCH><BSTAR>.16954E-3</BSTAR><MEAN_MOTION_DOT>.79E-6</MEAN_MOTION_DOT><MEAN_MOTION_DDOT>0</MEAN_MOTION_DDOT></tleParameters></data></segment></body></omm>
<omm id="CCSDS_OMM_VERS" version="2.0">
<header><CREATION_DATE/><ORIGINATOR/></header><body><segment><metadata><OBJECT_NAME>ONEWEB-0423</OBJECT_NAME><OBJECT_ID>2022-012F</OBJECT_ID><CENTER_NAME>EARTH</CENTER_NAME><REF_FRAME>TEME</REF_FRAME><TIME_SYSTEM>UTC</TIME_SYSTEM><MEAN_ELEMENT_THEORY>SGP4</MEAN_ELEMENT_THEORY></metadata><data><meanElements><EPOCH>2024-03-20T07:48:27.744768</EPOCH><MEAN_MOTION>13.17648224</MEAN_MOTION><ECCENTRICITY>.0001979</ECCENTRICITY><INCLINATION>87.9257</INCLINATION><RA_OF_ASC_NODE>168.7603</RA_OF_ASC_NODE><ARG_OF_PERICENTER>101.7700</ARG_OF_PERICENTER><MEAN_ANOMALY>258.3654</MEAN_ANOMALY></meanElements><tleParameters><EPHEMERIS_TYPE>0</EPHEMERIS_TYPE><CLASSIFICATION_TYPE>U</CLASSIFICATION_TYPE><NORAD_CAT_ID>51627</NORAD_CAT_ID><ELEMENT_SET_NO>999</ELEMENT_SET_NO><REV_AT_EPOCH>10715</REV_AT_EPOCH><BSTAR>.27358E-3</BSTAR><MEAN_MOTION_DOT>.119E-5</MEAN_MOTION_DOT><MEAN_MOTION_DDOT>0</MEAN_MOTION_DDOT></tleParameters></data></segment></body></omm>
<omm id="CCSDS_OMM_VERS" version="2.0">
<header><CREATION_DATE/><ORIGINATOR/></header><body><segment><metadata><OBJECT_NAME>ONEWEB-0425</OBJECT_NAME><OBJECT_ID>2022-012G</OBJECT_ID><CENTER_NAME>EARTH</CENTER_NAME><REF_FRAME>TEME</REF_FRAME><TIME_SYSTEM>UTC</TIME_SYSTEM><MEAN_ELEMENT_THEORY>SGP4</MEAN_ELEMENT_THEORY></metadata><data><meanElements><EPOCH>2024-03-19T20:49:38.606016</EPOCH><MEAN_MOTION>13.10371443</MEAN_MOTION><ECCENTRICITY>.0002044</ECCENTRICITY><INCLINATION>87.8978</INCLINATION><RA_OF_ASC_NODE>199.0404</RA_OF_ASC_NODE><ARG_OF_PERICENTER>95.3633</ARG_OF_PERICENTER><MEAN_ANOMALY>264.7727</MEAN_ANOMALY></meanElements><tleParameters><EPHEMERIS_TYPE>0</EPHEMERIS_TYPE><CLASSIFICATION_TYPE>U</CLASSIFICATION_TYPE><NORAD_CAT_ID>51628</NORAD_CAT_ID><ELEMENT_SET_NO>999</ELEMENT_SET_NO><REV_AT_EPOCH>10331</REV_AT_EPOCH><BSTAR>.15098E-2</BSTAR><MEAN_MOTION_DOT>.54E-5</MEAN_MOTION_DOT><MEAN_MOTION_DDOT>0</MEAN_MOTION_DDOT></tleParameters></data></segment></body></omm>
<omm id="CCSDS_OMM_VERS" version="2.0">
<header><CREATION_DATE/><ORIGINATOR/></header><body><segment><metadata><OBJECT_NAME>ONEWEB-0428</OBJECT_NAME><OBJECT_ID>2022-012H</OBJECT_ID><CENTER_NAME>EARTH</CENTER_NAME><REF_FRAME>TEME</REF_FRAME><TIME_SYSTEM>UTC</TIME_SYSTEM><MEAN_ELEMENT_THEORY>SGP4</MEAN_ELEMENT_THEORY></metadata><data><meanElements><EPOCH>2024-03-20T09:11:15.104544</EPOCH><MEAN_MOTION>13.10376290</MEAN_MOTION><ECCENTRICITY>.0001369</ECCENTRICITY><INCLINATION>87.8985</INCLINATION><RA_OF_ASC_NODE>198.9533</RA_OF_ASC_NODE><ARG_OF_PERICENTER>102.5388</ARG_OF_PERICENTER><MEAN_ANOMALY>257.5893</MEAN_ANOMALY></meanElements><tleParameters><EPHEMERIS_TYPE>0</EPHEMERIS_TYPE><CLASSIFICATION_TYPE>U</CLASSIFICATION_TYPE><NORAD_CAT_ID>51629</NORAD_CAT_ID><ELEMENT_SET_NO>999</ELEMENT_SET_NO><REV_AT_EPOCH>10333</REV_AT_EPOCH><BSTAR>.11727E-2</BSTAR><MEAN_MOTION_DOT>.422E-5</MEAN_MOTION_DOT><MEAN_MOTION_DDOT>0</MEAN_MOTION_DDOT></tleParameters></data></segment></body></omm>
<omm id="CCSDS_OMM_VERS" version="2.0">
<header><CREATION_DATE/><ORIGINATOR/></header><body><segment><metadata><OBJECT_NAME>ONEWEB-0431</OBJECT_NAME><OBJECT_ID>2022-012J</OBJECT_ID><CENTER_NAME>EARTH</CENTER_NAME><REF_FRAME>TEME</REF_FRAME><TIME_SYSTEM>UTC</TIME_SYSTEM><MEAN_ELEMENT_THEORY>SGP4</MEAN_ELEMENT_THEORY></metadata><data><meanElements><EPOCH>2024-03-20T08:26:33.455040</EPOCH><MEAN_MOTION>13.10374636</MEAN_MOTION><ECCENTRICITY>.0001279</ECCENTRICITY><INCLINATION>87.8978</INCLINATION><RA_OF_ASC_NODE>198.9623</RA_OF_ASC_NODE><ARG_OF_PERICENTER>129.1115</ARG_OF_PERICENTER><MEAN_ANOMALY>231.0126</MEAN_ANOMALY></meanElements><tleParameters><EPHEMERIS_TYPE>0</EPHEMERIS_TYPE><CLASSIFICATION_TYPE>U</CLASSIFICATION_TYPE><NORAD_CAT_ID>51630</NORAD_CAT_ID><ELEMENT_SET_NO>999</ELEMENT_SET_NO><REV_AT_EPOCH>10339</REV_AT_EPOCH><BSTAR>-.16644E-2</BSTAR><MEAN_MOTION_DOT>-.568E-5</MEAN_MOTION_DOT><MEAN_MOTION_DDOT>0</MEAN_MOTION_DDOT></tleParameters></data></segment></body></omm>
<omm id="CCSDS_OMM_VERS" version="2.0">
<header><CREATION_DATE/><ORIGINATOR/></header><body><segment><metadata><OBJECT_NAME>ONEWEB-0434</OBJECT_NAME><OBJECT_ID>2022-012K</OBJECT_ID><CENTER_NAME>EARTH</CENTER_NAME><REF_FRAME>TEME</REF_FRAME><TIME_SYSTEM>UTC</TIME_SYSTEM><MEAN_ELEMENT_THEORY>SGP4</MEAN_ELEMENT_THEORY></metadata><data><meanElements><EPOCH>2024-03-20T09:43:59.944224</EPOCH><MEAN_MOTION>13.10370088</MEAN_MOTION><ECCENTRICITY>.0001643</ECCENTRICITY><INCLINATION>87.8981</INCLINATION><RA_OF_ASC_NODE>198.9598</RA_OF_ASC_NODE><ARG_OF_PERICENTER>98.6399</ARG_OF_PERICENTER><MEAN_ANOMALY>261.4915</MEAN_ANOMALY></meanElements><tleParameters><EPHEMERIS_TYPE>0</EPHEMERIS_TYPE><CLASSIFICATION_TYPE>U</CLASSIFICATION_TYPE><NORAD_CAT_ID>51631</NORAD_CAT_ID><ELEMENT_SET_NO>999</ELEMENT_SET_NO><REV_AT_EPOCH>10338</REV_AT_EPOCH><BSTAR>.11926E-2</BSTAR><MEAN_MOTION_DOT>.429E-5</MEAN_MOTION_DOT><MEAN_MOTION_DDOT>0</MEAN_MOTION_DDOT></tleParameters></data></segment></body></omm>
<omm id="CCSDS_OMM_VERS" version="2.0">
<header><CREATION_DATE/><ORIGINATOR/></header><body><segment><metadata><OBJECT_NAME>ONEWEB-0435</OBJECT_NAME><OBJECT_ID>2022-012L</OBJECT_ID><CENTER_NAME>EARTH</CENTER_NAME><REF_FRAME>TEME</REF_FRAME><TIME_SYSTEM>UTC</TIME_SYSTEM><MEAN_ELEMENT_THEORY>SGP4</MEAN_ELEMENT_THEORY></metadata><data><meanElements><EPOCH>2024-03-20T08:05:43.770624</EPOCH><MEAN_MOTION>13.10368856</MEAN_MOTION><ECCENTRICITY>.0001348</ECCENTRICITY><INCLINATION>87.8981</INCLINATION><RA_OF_ASC_NODE>198.9639</RA_OF_ASC_NODE><ARG_OF_PERICENTER>95.1919</ARG_OF_PERICENTER><MEAN_ANOMALY>264.9362</MEAN_ANOMALY></meanElements><tleParameters><EPHEMERIS_TYPE>0</EPHEMERIS_TYPE><CLASSIFICATION_TYPE>U</CLASSIFICATION_TYPE><NORAD_CAT_ID>51632</NORAD_CAT_ID><ELEMENT_SET_NO>999</ELEMENT_SET_NO><REV_AT_EPOCH>10335</REV_AT_EPOCH><BSTAR>.51402E-4</BSTAR><MEAN_MOTION_DOT>.31E-6</MEAN_MOTION_DOT><MEAN_MOTION_DDOT>0</MEAN_MOTION_DDOT></tleParameters></data></segment></body></omm>
<omm id="CCSDS_OMM_VERS" version="2.0">
<header><CREATION_DATE/><ORIGINATOR/></header><body><segment><metadata><OBJECT_NAME>ONEWEB-0436</OBJECT_NAME><OBJECT_ID>2022-012M</OBJECT_ID><CENTER_NAME>EARTH</CENTER_NAME><REF_FRAME>TEME</REF_FRAME><TIME_SYSTEM>UTC</TIME_SYSTEM><MEAN_ELEMENT_THEORY>SGP4</MEAN_ELEMENT_THEORY></metadata><data><meanElements><EPOCH>2024-03-20T05:47:42.581184</EPOCH><MEAN_MOTION>13.17647550</MEAN_MOTION><ECCENTRICITY>.0001786</ECCENTRICITY><INCLINATION>87.9253</INCLINATION><RA_OF_ASC_NODE>168.7855</RA_OF_ASC_NODE><ARG_OF_PERICENTER>98.9581</ARG_OF_PERICENTER><MEAN_ANOMALY>261.1753</MEAN_ANOMALY></meanElements><tleParameters><EPHEMERIS_TYPE>0</EPHEMERIS_TYPE><CLASSIFICATION_TYPE>U</CLASSIFICATION_TYPE><NORAD_CAT_ID>51633</NORAD_CAT_ID><ELEMENT_SET_NO>999</ELEMENT_SET_NO><REV_AT_EPOCH>10712</REV_AT_EPOCH><BSTAR>.23892E-3</BSTAR><MEAN_MOTION_DOT>.106E-5</MEAN_MOTION_DOT><MEAN_MOTION_DDOT>0</MEAN_MOTION_DDOT></tleParameters></data></segment></body></omm>
<omm id="CCSDS_OMM_VERS" version="2.0">
<header><CREATION_DATE/><ORIGINATOR/></header><body><segment><metadata><OBJECT_NAME>ONEWEB-0438</OBJECT_NAME><OBJECT_ID>2022-012N</OBJECT_ID><CENTER_NAME>EARTH</CENTER_NAME><REF_FRAME>TEME</REF_FRAME><TIME_SYSTEM>UTC</TIME_SYSTEM><MEAN_ELEMENT_THEORY>SGP4</MEAN_ELEMENT_THEORY></metadata><data><meanElements><EPOCH>2024-03-19T20:42:37.677312</EPOCH><MEAN_MOTION>13.10371332</MEAN_MOTION><ECCENTRICITY>.0001928</ECCENTRICITY><INCLINATION>87.8984</INCLINATION><RA_OF_ASC_NODE>199.0582</RA_OF_ASC_NODE><ARG_OF_PERICENTER>101.3865</ARG_OF_PERICENTER><MEAN_ANOMALY>258.7479</MEAN_ANOMALY></meanElements><tleParameters><EPHEMERIS_TYPE>0</EPHEMERIS_TYPE><CLASSIFICATION_TYPE>U</CLASSIFICATION_TYPE><NORAD_CAT_ID>51634</NORAD_CAT_ID><ELEMENT_SET_NO>999</ELEMENT_SET_NO><REV_AT_EPOCH>10333</REV_AT_EPOCH><BSTAR>.16732E-2</BSTAR><MEAN_MOTION_DOT>.597E-5</MEAN_MOTION_DOT><MEAN_MOTION_DDOT>0</MEAN_MOTION_DDOT></tleParameters></data></segment></body></omm>

</ndm>
